{
  "type": "FeatureCollection",
  "features": [
    {
      "type": "Feature",
      "properties": {
        "norad_id": 39617,
        "name": "ASTRA 5B (EGNOS/PRN 123)",
        "group": "gnss",
        "lat": 0.036964918335740775,
        "lon": 49.73670026639104,
        "alt_km": 35798.51053148726,
        "timestamp": "2025-12-26T19:22:39.149386+00:00",
        "meta_object_name": "ASTRA 5B (EGNOS/PRN 123)",
        "meta_object_id": "2014-011B",
        "meta_epoch": "2025-12-26T02:52:23.929824",
        "meta_mean_motion": 1.00271511,
        "meta_eccentricity": 0.00046935,
        "meta_inclination": 0.0456,
        "meta_ra_of_asc_node": 16.7994,
        "meta_arg_of_pericenter": 264.1751,
        "meta_mean_anomaly": 240.4863,
        "meta_ephemeris_type": 0,
        "meta_classification_type": "U",
        "meta_norad_cat_id": 39617,
        "meta_element_set_no": 999,
        "meta_rev_at_epoch": 4293,
        "meta_bstar": 0,
        "meta_mean_motion_dot": 1.59e-06,
        "meta_mean_motion_ddot": 0,
        "tle_line1": "1 39617U 14011B   25360.11972141  .00000159  00000+0  00000+0 0  9998",
        "tle_line2": "2 39617   0.0456  16.7994 0004693 264.1751 240.4863  1.00271511 42930"
      },
      "geometry": {
        "type": "Point",
        "coordinates": [
          49.73670026639104,
          0.036964918335740775
        ]
      }
    },
    {
      "type": "Feature",
      "properties": {
        "norad_id": 39620,
        "name": "COSMOS 2492 (754)",
        "group": "gnss",
        "lat": 51.782684450572546,
        "lon": 104.23098717990736,
        "alt_km": 19159.459711238356,
        "timestamp": "2025-12-26T19:22:39.149400+00:00",
        "meta_object_name": "COSMOS 2492 (754)",
        "meta_object_id": "2014-012A",
        "meta_epoch": "2025-12-26T04:21:11.805696",
        "meta_mean_motion": 2.13103325,
        "meta_eccentricity": 0.00143205,
        "meta_inclination": 65.4004,
        "meta_ra_of_asc_node": 319.8153,
        "meta_arg_of_pericenter": 314.0587,
        "meta_mean_anomaly": 45.8272,
        "meta_ephemeris_type": 0,
        "meta_classification_type": "U",
        "meta_norad_cat_id": 39620,
        "meta_element_set_no": 999,
        "meta_rev_at_epoch": 9155,
        "meta_bstar": 0,
        "meta_mean_motion_dot": -3.3e-07,
        "meta_mean_motion_ddot": 0,
        "tle_line1": "1 39620U 14012A   25360.18138664 -.00000033  00000+0  00000+0 0  9996",
        "tle_line2": "2 39620  65.4004 319.8153 0014320 314.0587  45.8272  2.13103325 91557"
      },
      "geometry": {
        "type": "Point",
        "coordinates": [
          104.23098717990736,
          51.782684450572546
        ]
      }
    },
    {
      "type": "Feature",
      "properties": {
        "norad_id": 39635,
        "name": "IRNSS-1B",
        "group": "gnss",
        "lat": -8.669261720442867,
        "lon": 79.21807328565002,
        "alt_km": 35714.96556136053,
        "timestamp": "2025-12-26T19:22:39.149411+00:00",
        "meta_object_name": "IRNSS-1B",
        "meta_object_id": "2014-017A",
        "meta_epoch": "2025-12-24T18:29:47.559840",
        "meta_mean_motion": 1.00272104,
        "meta_eccentricity": 0.00185731,
        "meta_inclination": 29.2343,
        "meta_ra_of_asc_node": 243.3872,
        "meta_arg_of_pericenter": 174.7097,
        "meta_mean_anomaly": 8.021,
        "meta_ephemeris_type": 0,
        "meta_classification_type": "U",
        "meta_norad_cat_id": 39635,
        "meta_element_set_no": 999,
        "meta_rev_at_epoch": 4304,
        "meta_bstar": 0,
        "meta_mean_motion_dot": 1.4e-06,
        "meta_mean_motion_ddot": 0,
        "tle_line1": "1 39635U 14017A   25358.77068935  .00000140  00000+0  00000+0 0  9990",
        "tle_line2": "2 39635  29.2343 243.3872 0018573 174.7097   8.0210  1.00272104 43048"
      },
      "geometry": {
        "type": "Point",
        "coordinates": [
          79.21807328565002,
          -8.669261720442867
        ]
      }
    },
    {
      "type": "Feature",
      "properties": {
        "norad_id": 39727,
        "name": "LUCH 5V (SDCM/PRN 141)",
        "group": "gnss",
        "lat": 3.5935095177679135,
        "lon": 120.85029505642257,
        "alt_km": 35800.785229031026,
        "timestamp": "2025-12-26T19:22:39.149423+00:00",
        "meta_object_name": "LUCH 5V (SDCM/PRN 141)",
        "meta_object_id": "2014-023A",
        "meta_epoch": "2025-12-26T16:08:14.425152",
        "meta_mean_motion": 1.00273452,
        "meta_eccentricity": 0.00038182,
        "meta_inclination": 4.7027,
        "meta_ra_of_asc_node": 71.4189,
        "meta_arg_of_pericenter": 214.7386,
        "meta_mean_anomaly": 146.0681,
        "meta_ephemeris_type": 0,
        "meta_classification_type": "U",
        "meta_norad_cat_id": 39727,
        "meta_element_set_no": 999,
        "meta_rev_at_epoch": 4263,
        "meta_bstar": 0,
        "meta_mean_motion_dot": -2.49e-06,
        "meta_mean_motion_ddot": 0,
        "tle_line1": "1 39727U 14023A   25360.67238918 -.00000249  00000+0  00000+0 0  9992",
        "tle_line2": "2 39727   4.7027  71.4189 0003818 214.7386 146.0681  1.00273452 42636"
      },
      "geometry": {
        "type": "Point",
        "coordinates": [
          120.85029505642257,
          3.5935095177679135
        ]
      }
    },
    {
      "type": "Feature",
      "properties": {
        "norad_id": 39741,
        "name": "GPS BIIF-6  (PRN 06)",
        "group": "gnss",
        "lat": -53.42169852060561,
        "lon": -138.96237323319338,
        "alt_km": 20143.851398840987,
        "timestamp": "2025-12-26T19:22:39.149435+00:00",
        "meta_object_name": "GPS BIIF-6  (PRN 06)",
        "meta_object_id": "2014-026A",
        "meta_epoch": "2025-12-25T22:56:21.833664",
        "meta_mean_motion": 2.00560326,
        "meta_eccentricity": 0.00395057,
        "meta_inclination": 56.5784,
        "meta_ra_of_asc_node": 338.2626,
        "meta_arg_of_pericenter": 319.4307,
        "meta_mean_anomaly": 40.2828,
        "meta_ephemeris_type": 0,
        "meta_classification_type": "U",
        "meta_norad_cat_id": 39741,
        "meta_element_set_no": 999,
        "meta_rev_at_epoch": 8506,
        "meta_bstar": 0,
        "meta_mean_motion_dot": -5.7e-07,
        "meta_mean_motion_ddot": 0,
        "tle_line1": "1 39741U 14026A   25359.95580826 -.00000057  00000+0  00000+0 0  9995",
        "tle_line2": "2 39741  56.5784 338.2626 0039505 319.4307  40.2828  2.00560326 85067"
      },
      "geometry": {
        "type": "Point",
        "coordinates": [
          -138.96237323319338,
          -53.42169852060561
        ]
      }
    },
    {
      "type": "Feature",
      "properties": {
        "norad_id": 40001,
        "name": "COSMOS 2500 (755)",
        "group": "gnss",
        "lat": -10.616666495136405,
        "lon": -45.39628564391862,
        "alt_km": 19143.601510791974,
        "timestamp": "2025-12-26T19:22:39.149448+00:00",
        "meta_object_name": "COSMOS 2500 (755)",
        "meta_object_id": "2014-032A",
        "meta_epoch": "2025-12-26T08:28:54.444288",
        "meta_mean_motion": 2.13106178,
        "meta_eccentricity": 0.00076191,
        "meta_inclination": 65.3358,
        "meta_ra_of_asc_node": 319.5702,
        "meta_arg_of_pericenter": 219.616,
        "meta_mean_anomaly": 140.3327,
        "meta_ephemeris_type": 0,
        "meta_classification_type": "U",
        "meta_norad_cat_id": 40001,
        "meta_element_set_no": 999,
        "meta_rev_at_epoch": 8977,
        "meta_bstar": 0,
        "meta_mean_motion_dot": -3.4e-07,
        "meta_mean_motion_ddot": 0,
        "tle_line1": "1 40001U 14032A   25360.35340792 -.00000034  00000+0  00000+0 0  9990",
        "tle_line2": "2 40001  65.3358 319.5702 0007619 219.6160 140.3327  2.13106178 89772"
      },
      "geometry": {
        "type": "Point",
        "coordinates": [
          -45.39628564391862,
          -10.616666495136405
        ]
      }
    },
    {
      "type": "Feature",
      "properties": {
        "norad_id": 40105,
        "name": "GPS BIIF-7  (PRN 09)",
        "group": "gnss",
        "lat": -10.715713494018729,
        "lon": -77.11607947656505,
        "alt_km": 20157.352950595025,
        "timestamp": "2025-12-26T19:22:39.149460+00:00",
        "meta_object_name": "GPS BIIF-7  (PRN 09)",
        "meta_object_id": "2014-045A",
        "meta_epoch": "2025-12-23T13:11:32.096256",
        "meta_mean_motion": 2.00573211,
        "meta_eccentricity": 0.00324114,
        "meta_inclination": 55.2352,
        "meta_ra_of_asc_node": 95.4677,
        "meta_arg_of_pericenter": 120.1575,
        "meta_mean_anomaly": 240.1743,
        "meta_ephemeris_type": 0,
        "meta_classification_type": "U",
        "meta_norad_cat_id": 40105,
        "meta_element_set_no": 999,
        "meta_rev_at_epoch": 8255,
        "meta_bstar": 0,
        "meta_mean_motion_dot": 8e-08,
        "meta_mean_motion_ddot": 0,
        "tle_line1": "1 40105U 14045A   25357.54967704  .00000008  00000+0  00000+0 0  9994",
        "tle_line2": "2 40105  55.2352  95.4677 0032411 120.1575 240.1743  2.00573211 82556"
      },
      "geometry": {
        "type": "Point",
        "coordinates": [
          -77.11607947656505,
          -10.715713494018729
        ]
      }
    }
  ]
}